NORAD_CAT_ID,OBJECT_NAME,OBJECT_TYPE,EPOCH,MEAN_MOTION,ECCENTRICITY,INCLINATION,RA_OF_ASC_NODE,ARG_OF_PERICENTER,MEAN_ANOMALY,BSTAR,MEAN_MOTION_DOT,MEAN_MOTION_DDOT,TLE_LINE0,TLE_LINE1,TLE_LINE2,SEMIMAJOR_AXIS,PERIOD,APOGEE,PERIGEE,DECAYED
52548.0,STARLINK-3931,PAYLOAD,2022-10-27 09:00:26,15.08860019,0.0001781999999999,53.2185,247.7256,52.7706,307.3448,0.00063182,9.787e-05,0.0,0 STARLINK-3931,1 52548U 22051R   22300.37530892  .00009787  00000-0  63182-3 0  9992,2 52548  53.2185 247.7256 0001782  52.7706 307.3448 15.08860019 25866,6917.819,95.436,540.9169999999998,538.451,0.0
52548.0,STARLINK-3931,PAYLOAD,2022-10-27 13:46:36,15.08858578,0.0001849,53.2186,246.8336,51.962,308.1539,0.00051998,8.001e-05,0.0,0 STARLINK-3931,1 52548U 22051R   22300.57402829  .00008001  00000-0  51998-3 0  9992,2 52548  53.2186 246.8336 0001849  51.9620 308.1539 15.08858578 25896,6917.824000000001,95.436,540.9680000000002,538.409,0.0
52548.0,STARLINK-3931,PAYLOAD,2022-10-28 05:40:26,15.08854952,0.0001848,53.2183,243.8602,54.7656,305.3509,9.7326e-05,1.262e-05,0.0,0 STARLINK-3931,1 52548U 22051R   22301.23642170  .00001262  00000-0  97326-4 0  9999,2 52548  53.2183 243.8602 0001848  54.7656 305.3509 15.08854952 26063,6917.835,95.437,540.9780000000002,538.4209999999998,0.0
52548.0,STARLINK-3931,PAYLOAD,2022-10-28 07:15:49,15.08857091,0.0001909,53.2184,243.5629,53.944,306.1729,0.00016076,2.272e-05,0.0,0 STARLINK-3931,1 52548U 22051R   22301.30266086  .00002272  00000-0  16076-3 0  9999,2 52548  53.2184 243.5629 0001909  53.9440 306.1729 15.08857091 26004,6917.828,95.436,541.014,538.373,0.0
52548.0,STARLINK-3931,PAYLOAD,2022-10-28 19:58:54,15.08852734,0.0001958,53.2182,241.1841,57.4232,302.6949,0.00020591,2.992e-05,0.0,0 STARLINK-3931,1 52548U 22051R   22301.83257701  .00002992  00000-0  20591-3 0  9997,2 52548  53.2182 241.1841 0001958  57.4232 302.6949 15.08852734 26086,6917.840999999999,95.437,541.061,538.352,0.0
52548.0,STARLINK-3931,PAYLOAD,2022-10-29 02:20:26,15.08859022,0.0001889,53.2184,239.9948,56.3884,303.7288,0.00022008,3.218e-05,0.0,0 STARLINK-3931,1 52548U 22051R   22302.09753445  .00003218  00000-0  22008-3 0  9999,2 52548  53.2184 239.9948 0001889  56.3884 303.7288 15.08859022 26125,6917.821999999999,95.436,540.994,538.38,0.0
52548.0,STARLINK-3931,PAYLOAD,2022-10-29 19:49:41,15.08854584,0.0001947,53.2183,236.7241,56.3882,303.7296,0.00019985,2.895e-05,0.0,0 STARLINK-3931,1 52548U 22051R   22302.82617138  .00002895  00000-0  19985-3 0  9998,2 52548  53.2183 236.7241 0001947  56.3882 303.7296 15.08854584 26237,6917.8359999999975,95.437,541.048,538.354,0.0
52548.0,STARLINK-3931,PAYLOAD,2022-10-29 23:00:27,15.08859312,0.0001947,53.2183,236.1307,56.7761,303.3418,0.00023594,3.471e-05,0.0,0 STARLINK-3931,1 52548U 22051R   22302.95864850  .00003471  00000-0  23594-3 0  9999,2 52548  53.2183 236.1307 0001947  56.7761 303.3418 15.08859312 26320,6917.821,95.436,541.033,538.339,0.0
52548.0,STARLINK-3931,PAYLOAD,2022-10-30 02:11:13,15.08859127,0.0002012,53.2188,235.5373,54.5186,305.5994,0.0001794,2.57e-05,0.0,0 STARLINK-3931,1 52548U 22051R   22303.09112732  .00002570  00000-0  17940-3 0  9997,2 52548  53.2188 235.5373 0002012  54.5186 305.5994 15.08859127 26273,6917.821999999999,95.436,541.0790000000002,538.295,0.0
52548.0,STARLINK-3931,PAYLOAD,2022-10-30 19:40:28,15.0884076,0.0002037,53.2186,232.2667,51.1672,308.9501,-7.5073e-05,-1.483e-05,0.0,0 STARLINK-3931,1 52548U 22051R   22303.81977209 -.00001483  00000-0 -75073-4 0  9991,2 52548  53.2186 232.2667 0002037  51.1672 308.9501 15.08840760 26387,6917.878000000002,95.438,541.1519999999998,538.3340000000002,0.0
52548.0,STARLINK-3931,PAYLOAD,2022-10-31 06:48:11,15.08827038,0.0001810999999999,53.2186,230.1826,54.0873,306.0287,-0.00020134,-3.4899999999999995e-05,0.0,0 STARLINK-3931,1 52548U 22051R   22304.28346186 -.00003490  00000-0 -20134-3 0  9994,2 52548  53.2186 230.1826 0001811  54.0873 306.0287 15.08827038 26456,6917.92,95.438,541.038,538.5319999999998,0.0
52548.0,STARLINK-3931,PAYLOAD,2022-10-31 19:31:16,15.08831184,0.0001784,53.2186,227.8035,49.0264,311.0882,-0.0001499,-2.672e-05,0.0,0 STARLINK-3931,1 52548U 22051R   22304.81338386 -.00002672  00000-0 -14990-3 0  9990,2 52548  53.2186 227.8035 0001784  49.0264 311.0882 15.08831184 26531,6917.906999999997,95.438,541.006,538.538,0.0
52548.0,STARLINK-3931,PAYLOAD,2022-11-01 06:38:58,15.08836101,0.0001784,53.2184,225.7223,51.0257,309.0894,0.00017035,2.424e-05,0.0,0 STARLINK-3931,1 52548U 22051R   22305.27706588  .00002424  00000-0  17035-3 0  9990,2 52548  53.2184 225.7223 0001784  51.0257 309.0894 15.08836101 26602,6917.892,95.438,540.991,538.523,0.0
52548.0,STARLINK-3931,PAYLOAD,2022-11-01 19:22:04,15.08833776,0.0001776,53.2182,223.3438,52.1862,307.9290000000001,0.00035388,5.347e-05,0.0,0 STARLINK-3931,1 52548U 22051R   22305.80699255  .00005347  00000-0  35388-3 0  9999,2 52548  53.2182 223.3438 0001776  52.1862 307.9290 15.08833776 26687,6917.899,95.438,540.993,538.536,0.0
52548.0,STARLINK-3931,PAYLOAD,2022-11-02 03:18:59,15.08834971,0.0001975,53.2183,221.8582,54.2177,305.8998,0.0002631,3.901e-05,0.0,0 STARLINK-3931,1 52548U 22051R   22306.13819404  .00003901  00000-0  26310-3 0  9995,2 52548  53.2183 221.8582 0001975  54.2177 305.8998 15.08834971 26808,6917.896,95.438,541.127,538.394,0.0
52548.0,STARLINK-3931,PAYLOAD,2022-11-02 11:15:55,15.08840126,0.0001739,53.2182,220.3705,50.9864,309.1283,0.00033394,5.031e-05,0.0,0 STARLINK-3931,1 52548U 22051R   22306.46939280  .00005031  00000-0  33394-3 0  9992,2 52548  53.2182 220.3705 0001739  50.9864 309.1283 15.08840126 26782,6917.88,95.438,540.948,538.5419999999998,0.0
52548.0,STARLINK-3931,PAYLOAD,2022-11-03 11:06:42,15.08853318,0.0001807,53.2181,215.9104,52.7847,307.331,0.0006743,0.00010464,0.0,0 STARLINK-3931,1 52548U 22051R   22307.46299124  .00010464  00000-0  67430-3 0  9993,2 52548  53.2181 215.9104 0001807  52.7847 307.3310 15.08853318 27005,6917.84,95.437,540.955,538.455,0.0
52548.0,STARLINK-3931,PAYLOAD,2022-11-04 10:57:28,15.08860548,0.0001918,53.2181,211.4485,48.8104,311.3053,0.00027086,4.028e-05,0.0,0 STARLINK-3931,1 52548U 22051R   22308.45657765  .00004028  00000-0  27086-3 0  9994,2 52548  53.2181 211.4485 0001918  48.8104 311.3053 15.08860548 27151,6917.818,95.436,541.009,538.356,0.0
52548.0,STARLINK-3931,PAYLOAD,2022-11-04 17:19:01,15.088150699999998,0.0001688,53.2183,210.2612,55.03,305.0851,-0.0013802,-0.00022172,0.0,0 STARLINK-3931,1 52548U 22051R   22308.72154663 -.00022172  00000-0 -13802-2 0  9995,2 52548  53.2183 210.2612 0001688  55.0300 305.0851 15.08815070 27194,6917.956999999999,95.439,540.989,538.654,0.0
52548.0,STARLINK-3931,PAYLOAD,2022-11-05 10:48:17,15.08819779,0.000149,53.2179,206.9887,56.3059,303.8075,0.00074369,0.00011561,0.0,0 STARLINK-3931,1 52548U 22051R   22309.45020365  .00011561  00000-0  74369-3 0  9991,2 52548  53.2179 206.9887 0001490  56.3059 303.8075 15.08819779 27308,6917.941999999999,95.439,540.8380000000002,538.776,0.0
52548.0,STARLINK-3931,PAYLOAD,2022-11-05 23:31:22,15.08842435,0.0001482,53.2179,204.611,49.9778,310.1344,0.0011342,0.0001781,0.0,0 STARLINK-3931,1 52548U 22051R   22309.98012555  .00017810  00000-0  11342-2 0  9995,2 52548  53.2179 204.6110 0001482  49.9778 310.1344 15.08842435 27382,6917.873000000001,95.437,540.763,538.7130000000002,0.0
52548.0,STARLINK-3931,PAYLOAD,2022-11-06 10:39:04,15.0884078,0.0001520999999999,53.2177,202.5303,44.2299,315.8814,0.00031989,4.807e-05,0.0,0 STARLINK-3931,1 52548U 22051R   22310.44380555  .00004807  00000-0  31989-3 0  9998,2 52548  53.2177 202.5303 0001521  44.2299 315.8814 15.08840780 27454,6917.878000000002,95.438,540.795,538.691,0.0
52548.0,STARLINK-3931,PAYLOAD,2022-11-06 21:46:46,15.08845567,0.0001606,53.2183,200.4484,48.8293,311.2837,0.00034949,5.279e-05,0.0,0 STARLINK-3931,1 52548U 22051R   22310.90748507  .00005279  00000-0  34949-3 0  9997,2 52548  53.2183 200.4484 0001606  48.8293 311.2837 15.08845567 27459,6917.863,95.437,540.839,538.617,0.0
52548.0,STARLINK-3931,PAYLOAD,2022-11-07 23:12:57,15.08843698,0.0001706999999999,53.2182,195.6915,49.3554,310.7586,0.00031198,4.681e-05,0.0,0 STARLINK-3931,1 52548U 22051R   22311.96732847  .00004681  00000-0  31198-3 0  9993,2 52548  53.2182 195.6915 0001707  49.3554 310.7586 15.08843698 27683,6917.869000000002,95.437,540.915,538.553,0.0
52548.0,STARLINK-3931,PAYLOAD,2022-11-09 02:14:29,15.088094,0.0001892,53.2184,190.6361,41.7659,318.3477,-0.00084585,-0.00013713,0.0,0 STARLINK-3931,1 52548U 22051R   22313.09340001 -.00013713  00000-0 -84585-3 0  9992,2 52548  53.2184 190.6361 0001892  41.7659 318.3477 15.08809400 27857,6917.974,95.439,541.148,538.53,0.0
52548.0,STARLINK-3931,PAYLOAD,2022-11-09 03:49:53,15.08831275,0.0001884,53.218,190.3384,43.9555,316.1587,-0.00033982,-5.691e-05,0.0,0 STARLINK-3931,1 52548U 22051R   22313.15964281 -.00005691  00000-0 -33982-3 0  9992,2 52548  53.2180 190.3384 0001884  43.9555 316.1587 15.08831275 27791,6917.906999999997,95.438,541.075,538.469,0.0
52548.0,STARLINK-3931,PAYLOAD,2022-11-09 21:19:07,15.08838279,0.0001784,53.2171,187.0682,43.6971,316.4162,4.1044e-05,3.65e-06,0.0,0 STARLINK-3931,1 52548U 22051R   22313.88828359  .00000365  00000-0  41044-4 0  9997,2 52548  53.2171 187.0682 0001784  43.6971 316.4162 15.08838279 27976,6917.886,95.438,540.985,538.516,0.0
52548.0,STARLINK-3931,PAYLOAD,2022-11-10 02:05:17,15.08823356,0.0001887,53.2175,186.1752,46.192,313.9228,-0.00023954,-4.097e-05,0.0,0 STARLINK-3931,1 52548U 22051R   22314.08700945 -.00004097  00000-0 -23954-3 0  9997,2 52548  53.2175 186.1752 0001887  46.1920 313.9228 15.08823356 28004,6917.931,95.439,541.102,538.491,0.0
52548.0,STARLINK-3931,PAYLOAD,2022-11-10 08:26:50,15.08824923,0.0001943,53.2175,184.9863,45.5255,314.5896,-2.409e-05,-6.71e-06,0.0,0 STARLINK-3931,1 52548U 22051R   22314.35197247 -.00000671  00000-0 -24090-4 0  9999,2 52548  53.2175 184.9863 0001943  45.5255 314.5896 15.08824923 27974,6917.926,95.439,541.136,538.447,0.0
